STARLINK-2533           
1 48294U 21036U   26068.31668540 -.00001691  00000+0 -44995-4 0  9997
2 48294  53.1612  76.9993 0001170 119.6807 240.4310 15.30195360268352
TRANSPORTER-12 OBJECT AZ
1 62656U 25009AZ  26068.71026235  .00016057  00000+0  54903-3 0  9991
2 62656  97.3981 151.9913 0000987  45.3581 314.7740 15.30349724 63792
